NORAD_CAT_ID,OBJECT_NAME,OBJECT_TYPE,EPOCH,MEAN_MOTION,ECCENTRICITY,INCLINATION,RA_OF_ASC_NODE,ARG_OF_PERICENTER,MEAN_ANOMALY,BSTAR,MEAN_MOTION_DOT,MEAN_MOTION_DDOT,TLE_LINE0,TLE_LINE1,TLE_LINE2,SEMIMAJOR_AXIS,PERIOD,APOGEE,PERIGEE,DECAYED
54079.0,STARLINK-5175,PAYLOAD,2023-09-04 02:01:06,15.08836035,0.0002079,53.2175,133.6343,108.4672,251.6546,1.1656e-05,-1.03e-06,0.0,0 STARLINK-5175,1 54079U 22136AE  23247.08410744 -.00000103  00000-0  11656-4 0  9993,2 54079  53.2175 133.6343 0002079 108.4672 251.6546 15.08836035 48931,6917.893,95.438,541.196,538.319,0.0
54079.0,STARLINK-5175,PAYLOAD,2023-09-04 09:58:02,15.08836814,0.0002038,53.2177,132.1472,111.2072,248.9138,2.2633e-05,7.2e-07,0.0,0 STARLINK-5175,1 54079U 22136AE  23247.41530727  .00000072  00000-0  22633-4 0  9995,2 54079  53.2177 132.1472 0002038 111.2072 248.9138 15.08836814 48505,6917.89,95.438,541.165,538.345,0.0
54079.0,STARLINK-5175,PAYLOAD,2023-09-05 01:51:53,15.08842117,0.0001443,53.2174,129.1736,103.1693,256.946,1.6284e-05,-2.9e-07,0.0,0 STARLINK-5175,1 54079U 22136AE  23248.07770450 -.00000029  00000-0  16284-4 0  9995,2 54079  53.2174 129.1736 0001443 103.1693 256.9460 15.08842117 48600,6917.874,95.437,540.737,538.741,0.0
54079.0,STARLINK-5175,PAYLOAD,2023-09-06 01:42:40,15.08845319,0.0001441,53.2175,124.7131,89.5205,270.5952,0.00011196,1.495e-05,0.0,0 STARLINK-5175,1 54079U 22136AE  23249.07129884  .00001495  00000-0  11196-3 0  9998,2 54079  53.2175 124.7131 0001441  89.5205 270.5952 15.08845319 49230,6917.864,95.437,540.726,538.732,0.0
54079.0,STARLINK-5175,PAYLOAD,2023-09-07 01:33:27,15.0884469,0.0001463,53.2181,120.2526,89.353,270.763,2.1099e-05,4.8e-07,0.0,0 STARLINK-5175,1 54079U 22136AE  23250.06490062  .00000048  00000-0  21099-4 0  9995,2 54079  53.2181 120.2526 0001463  89.3530 270.7630 15.08844690 49381,6917.866,95.437,540.743,538.719,0.0
54079.0,STARLINK-5175,PAYLOAD,2023-09-07 14:16:32,15.08840488,0.000174,53.2139,117.8763,89.8835,270.2356,-2.5062e-05,-6.87e-06,0.0,0 STARLINK-5175,1 54079U 22136AE  23250.59482418 -.00000687  00000-0 -25062-4 0  9994,2 54079  53.2139 117.8763 0001740  89.8835 270.2356 15.08840488 48986,6917.879,95.438,540.948,538.54,0.0
54079.0,STARLINK-5175,PAYLOAD,2023-09-07 15:51:56,15.08840381,0.0001506,53.2159,117.5771,95.5798,264.5366,-6.6945e-05,-1.353e-05,0.0,0 STARLINK-5175,1 54079U 22136AE  23250.66106556 -.00001353  00000-0 -66945-4 0  9994,2 54079  53.2159 117.5771 0001506  95.5798 264.5366 15.08840381 49470,6917.879,95.438,540.786,538.702,0.0
54079.0,STARLINK-5175,PAYLOAD,2023-09-07 23:48:51,15.08837193,0.0001176,53.2147,116.0908,81.5706,278.5419,-3.6854e-05,-8.74e-06,0.0,0 STARLINK-5175,1 54079U 22136AE  23250.99226664 -.00000874  00000-0 -36854-4 0  9996,2 54079  53.2147 116.0908 0001176  81.5706 278.5419 15.08837193 49044,6917.889,95.438,540.568,538.94,0.0
54079.0,STARLINK-5175,PAYLOAD,2023-09-08 18:53:29,15.08850102,0.0001232,53.2174,112.5235,86.2671,273.8462,-0.00012544,-2.284e-05,0.0,0 STARLINK-5175,1 54079U 22136AE  23251.78714610 -.00002284  00000-0 -12544-3 0  9993,2 54079  53.2174 112.5235 0001232  86.2671 273.8462 15.08850102 49641,6917.85,95.437,540.567,538.862,0.0
54079.0,STARLINK-5175,PAYLOAD,2023-09-08 20:28:52,15.08843405,0.000125,53.217,112.226,83.8079,276.3055,-2.4674e-05,-6.81e-06,0.0,0 STARLINK-5175,1 54079U 22136AE  23251.85338553 -.00000681  00000-0 -24674-4 0  9996,2 54079  53.2170 112.2260 0001250  83.8079 276.3055 15.08843405 49179,6917.87,95.437,540.6,538.87,0.0
54079.0,STARLINK-5175,PAYLOAD,2023-09-09 01:15:01,15.08846746,0.0001142,53.2171,111.3335,81.5011,278.6111,1.423e-05,-6.1e-07,0.0,0 STARLINK-5175,1 54079U 22136AE  23252.05210168 -.00000061  00000-0  14230-4 0  9998,2 54079  53.2171 111.3335 0001142  81.5011 278.6111 15.08846746 49207,6917.86,95.437,540.515,538.935,0.0
54079.0,STARLINK-5175,PAYLOAD,2023-09-09 18:44:16,15.08848063,0.0001352,53.2167,108.061,77.9686,282.1457,-0.00014275,-2.56e-05,0.0,0 STARLINK-5175,1 54079U 22136AE  23252.78074849 -.00002560  00000-0 -14275-3 0  9997,2 54079  53.2167 108.0610 0001352  77.9686 282.1457 15.08848063 49792,6917.856,95.437,540.656,538.785,0.0
54079.0,STARLINK-5175,PAYLOAD,2023-09-10 01:05:48,15.08846267,0.0001087,53.2185,106.8706,69.7059,290.405,-1.2833e-05,-4.92e-06,0.0,0 STARLINK-5175,1 54079U 22136AE  23253.04570430 -.00000492  00000-0 -12833-4 0  9995,2 54079  53.2185 106.8706 0001087  69.7059 290.4050 15.08846267 49359,6917.861,95.437,540.478,538.974,0.0
54079.0,STARLINK-5175,PAYLOAD,2023-09-10 20:10:26,15.08841625,0.000111,53.2167,103.3028,104.7074,255.4041,2.2673e-05,7.3e-07,0.0,0 STARLINK-5175,1 54079U 22136AE  23253.84058839  .00000073  00000-0  22673-4 0  9993,2 54079  53.2167 103.3028 0001110 104.7074 255.4041 15.08841625 49952,6917.875,95.437,540.508,538.973,0.0
54079.0,STARLINK-5175,PAYLOAD,2023-09-11 13:39:41,15.08835082,0.0001204,53.2169,100.0315,90.8545,269.2585,4.9929e-05,5.07e-06,0.0,0 STARLINK-5175,1 54079U 22136AE  23254.56923348  .00000507  00000-0  49929-4 0  9994,2 54079  53.2169 100.0315 0001204  90.8545 269.2585 15.08835082 49584,6917.895,95.438,540.593,538.928,0.0
54079.0,STARLINK-5175,PAYLOAD,2023-09-11 20:01:13,15.08846435,0.0001164,53.2163,98.8439,96.7532,263.3593,-3.9643e-05,-9.19e-06,0.0,0 STARLINK-5175,1 54079U 22136AE  23254.83418936 -.00000919  00000-0 -39643-4 0  9997,2 54079  53.2163  98.8439 0001164  96.7532 263.3593 15.08846435 50103,6917.861,95.437,540.531,538.92,0.0
54079.0,STARLINK-5175,PAYLOAD,2023-09-12 13:30:28,15.08819307,0.0001344,53.216,95.5723,108.1409,251.9729,0.00028753,4.289e-05,0.0,0 STARLINK-5175,1 54079U 22136AE  23255.56283243  .00004289  00000-0  28753-3 0  9990,2 54079  53.2160  95.5723 0001344 108.1409 251.9729 15.08819307 49730,6917.944,95.439,540.738,538.879,0.0
54079.0,STARLINK-5175,PAYLOAD,2023-09-12 19:52:00,15.08844533,0.0001167,53.2165,94.3824,88.371,271.7416,5.9359e-05,6.57e-06,0.0,0 STARLINK-5175,1 54079U 22136AE  23255.82778843  .00000657  00000-0  59359-4 0  9996,2 54079  53.2165  94.3824 0001167  88.3710 271.7416 15.08844533 49777,6917.867,95.437,540.539,538.924,0.0
54079.0,STARLINK-5175,PAYLOAD,2023-09-13 13:21:14,15.08847216,0.000119,53.2166,91.1118,86.5099,273.603,0.00012005,1.624e-05,0.0,0 STARLINK-5175,1 54079U 22136AE  23256.55642344  .00001624  00000-0  12005-3 0  9994,2 54079  53.2166  91.1118 0001190  86.5099 273.6030 15.08847216 49881,6917.858,95.437,540.547,538.9,0.0
54079.0,STARLINK-5175,PAYLOAD,2023-09-13 18:07:24,15.08849364,0.0001185,53.2168,90.2198,86.0984,274.0144,0.00013679,1.89e-05,0.0,0 STARLINK-5175,1 54079U 22136AE  23256.75514118  .00001890  00000-0  13679-3 0  9996,2 54079  53.2168  90.2198 0001185  86.0984 274.0144 15.08849364 50398,6917.852,95.437,540.537,538.897,0.0
54079.0,STARLINK-5175,PAYLOAD,2023-09-13 19:42:47,15.08851967,0.0001296,53.2178,89.9229,93.7279,266.3862,0.00015736,2.218e-05,0.0,0 STARLINK-5175,1 54079U 22136AE  23256.82137888  .00002218  00000-0  15736-3 0  9990,2 54079  53.2178  89.9229 0001296  93.7279 266.3862 15.08851967 49924,6917.844,95.437,540.605,538.812,0.0
54079.0,STARLINK-5175,PAYLOAD,2023-09-14 13:12:02,15.08837532,0.0001231,53.2175,86.6509,94.7325,265.3808,8.8494e-07,-2.74e-06,0.0,0 STARLINK-5175,1 54079U 22136AE  23257.55003395 -.00000274  00000-0  88494-6 0  9991,2 54079  53.2175  86.6509 0001231  94.7325 265.3808 15.08837532 50033,6917.888,95.438,540.605,538.901,0.0
54079.0,STARLINK-5175,PAYLOAD,2023-09-14 16:22:49,15.08833023,0.0001141,53.2167,86.0537,95.9565,264.1557,-4.6401e-05,-1.026e-05,0.0,0 STARLINK-5175,1 54079U 22136AE  23257.68251786 -.00001026  00000-0 -46401-4 0  9991,2 54079  53.2167  86.0537 0001141  95.9565 264.1557 15.08833023 50532,6917.902,95.438,540.556,538.977,0.0
54079.0,STARLINK-5175,PAYLOAD,2023-09-14 21:08:59,15.08829592,0.0001192,53.2179,85.1654,83.8415,276.2713,-6.0395e-05,-1.249e-05,0.0,0 STARLINK-5175,1 54079U 22136AE  23257.88124161 -.00001249  00000-0 -60395-4 0  9994,2 54079  53.2179  85.1654 0001192  83.8415 276.2713 15.08829592 50085,6917.912,95.438,540.602,538.953,0.0
54079.0,STARLINK-5175,PAYLOAD,2023-09-15 13:02:49,15.08842734,0.0001113,53.2174,82.1906,81.3368,278.7751,6.1144e-06,-1.9e-06,0.0,0 STARLINK-5175,1 54079U 22136AE  23258.54363385 -.00000190  00000-0  61144-5 0  9998,2 54079  53.2174  82.1906 0001113  81.3368 278.7751 15.08842734 50183,6917.872,95.437,540.507,538.967,0.0
54079.0,STARLINK-5175,PAYLOAD,2023-09-15 17:48:59,15.08848419,0.0001152,53.2178,81.2989,81.0439,279.0684,5.6418e-05,6.1e-06,0.0,0 STARLINK-5175,1 54079U 22136AE  23258.74234955  .00000610  00000-0  56418-4 0  9993,2 54079  53.2178  81.2989 0001152  81.0439 279.0684 15.08848419 50698,6917.855,95.437,540.517,538.923,0.0
54079.0,STARLINK-5175,PAYLOAD,2023-09-16 04:56:41,15.08838616,0.0001449,53.2167,79.2168,78.3944,281.7211,0.00015116,2.118e-05,0.0,0 STARLINK-5175,1 54079U 22136AE  23259.20603477  .00002118  00000-0  15116-3 0  9998,2 54079  53.2167  79.2168 0001449  78.3944 281.7211 15.08838616 50763,6917.885,95.438,540.752,538.747,0.0
54079.0,STARLINK-5175,PAYLOAD,2023-09-16 12:53:37,15.08839023,0.0001363,53.2163,77.73,75.3879,284.7264,0.00021852,3.191e-05,0.0,0 STARLINK-5175,1 54079U 22136AE  23259.53723660  .00003191  00000-0  21852-3 0  9997,2 54079  53.2163  77.7300 0001363  75.3879 284.7264 15.08839023 50336,6917.883,95.438,540.691,538.805,0.0
54079.0,STARLINK-5175,PAYLOAD,2023-09-16 20:50:32,15.08850007,0.0001152,53.2165,76.2436,77.3244,282.7877,0.00036207,5.481e-05,0.0,0 STARLINK-5175,1 54079U 22136AE  23259.86843276  .00005481  00000-0  36207-3 0  9993,2 54079  53.2165  76.2436 0001152  77.3244 282.7877 15.08850007 50867,6917.85,95.437,540.512,538.918,0.0
54079.0,STARLINK-5175,PAYLOAD,2023-09-17 12:44:23,15.08845402,0.0001058,53.2159,73.2696,78.2182,281.8928,0.00027087,4.026e-05,0.0,0 STARLINK-5175,1 54079U 22136AE  23260.53083318  .00004026  00000-0  27087-3 0  9992,2 54079  53.2159  73.2696 0001058  78.2182 281.8928 15.08845402 50489,6917.864,95.437,540.461,538.997,0.0
